OBJECT_NAME,OBJECT_ID,EPOCH,MEAN_MOTION,ECCENTRICITY,INCLINATION,RA_OF_ASC_NODE,ARG_OF_PERICENTER,MEAN_ANOMALY,EPHEMERIS_TYPE,CLASSIFICATION_TYPE,NORAD_CAT_ID,ELEMENT_SET_NO,REV_AT_EPOCH,BSTAR,MEAN_MOTION_DOT,MEAN_MOTION_DDOT
ZHONGXING-1E,2022-112A,2026-06-09T15:26:08.763072,1.00270189,.00002331,0.0480,106.4507,218.9291,245.5746,0,U,53813,999,1377,0,-.132E-5,0
SES-20,2022-123A,2026-06-09T08:12:42.108192,1.00269457,.00019323,0.0369,79.3383,15.8227,182.6353,0,U,53960,999,1345,0,-.84E-6,0
SES-21,2022-123B,2026-06-09T11:21:50.399136,1.00270189,.00008828,0.0268,34.5519,42.4615,220.2829,0,U,53961,999,713,0,.86E-6,0
GALAXY 33 (G-33),2022-128A,2026-06-09T11:22:49.971936,1.00271439,.00018368,0.0120,310.7698,134.5963,210.2085,0,U,54026,999,1366,0,.96E-6,0
GALAXY 34 (G-34),2022-128B,2026-06-08T23:02:06.902304,1.00274719,.00018617,0.0154,329.7482,136.9348,7.2031,0,U,54027,999,1383,0,.75E-6,0
ANGOSAT 2,2022-131A,2026-06-08T13:29:27.062592,1.00271763,.00013372,0.0283,81.7064,30.9456,9.6608,0,U,54033,999,1339,0,.151E-5,0
EUTELSAT HOTBIRD 13F,2022-134A,2026-06-09T03:07:56.720640,1.00271656,.00020851,0.0486,290.4942,68.8413,318.1724,0,U,54048,999,1329,0,.104E-5,0
LDPE-2,2022-144A,2026-06-09T10:50:39.383808,1.00529098,.00017959,5.5935,63.7126,99.1941,92.8838,0,U,54219,999,1176,0,.144E-5,0
EUTELSAT HOTBIRD 13G,2022-146A,2026-06-09T08:16:00.834240,1.00266735,.00016266,0.0480,235.0729,312.2826,207.3694,0,U,54225,999,738,0,.103E-5,0
ZHONGXING-19,2022-148A,2026-06-09T14:46:18.899328,1.00271546,.00023459,0.0188,283.4260,181.1777,178.1564,0,U,54230,999,1330,0,-.64E-6,0
GALAXY 31 (G-31),2022-153A,2026-06-09T11:15:45.544896,1.00272101,.00012757,0.0130,270.6969,166.7987,228.2957,0,U,54243,999,705,0,.3E-6,0
GALAXY 32 (G-32),2022-153B,2026-06-09T07:46:18.681312,1.00270919,.00021646,0.0091,331.9838,65.0548,246.2445,0,U,54244,999,1306,0,-.157E-5,0
EUTELSAT 10B,2022-157A,2026-06-08T21:59:06.384768,1.00268359,.00020135,0.0624,101.3035,11.5283,124.2533,0,U,54259,999,1294,0,.84E-6,0
GALAXY 35 (G-35),2022-170A,2026-06-09T11:00:24.946848,1.00271145,.00020317,0.0337,106.4075,335.1959,248.2408,0,U,54741,999,1281,0,-.145E-5,0
GALAXY 36 (G-36),2022-170B,2026-06-09T09:29:35.775744,1.00270817,.0002652,0.0150,151.7517,291.6745,227.7498,0,U,54742,999,1269,0,-.168E-5,0
METEOSAT-12 (MTG-I1),2022-170C,2026-06-09T08:12:08.704224,1.00271638,.00033604,0.7292,21.5863,71.5154,287.2272,0,U,54743,999,1289,0,.8E-7,0
SHIJIAN-23 (SJ-23),2023-002A,2026-06-09T15:46:36.940800,1.00089548,.0003825,3.6971,78.4065,274.2638,295.0863,0,U,55131,999,1243,0,-.193E-5,0
APSTAR-6E,2023-005A,2026-06-08T15:10:50.553120,1.00271697,.00009926,0.0214,248.8845,305.5776,64.2622,0,U,55239,999,1860,0,-.301E-5,0
USA 342,2023-008A,2026-06-07T06:41:44.493216,1.00272218,.0000352,0.0030,157.3806,136.6587,85.8740,0,U,55263,999,1241,0,.152E-5,0
LDPE-3A,2023-008B,2026-06-09T10:38:11.376672,0.99146188,.00011449,2.3265,81.7589,54.8539,203.1241,0,U,55264,999,1173,0,-.8E-6,0
ELEKTRO-L 4,2023-016A,2026-06-08T19:47:58.500960,1.00272713,.0000794,0.0723,176.6978,359.6847,183.6282,0,U,55506,999,1225,0,-.41E-6,0
AMAZONAS NEXUS,2023-017A,2026-06-08T13:05:34.396800,1.00269716,.00051349,0.0356,30.7430,32.4463,329.1618,0,U,55508,999,695,0,-.266E-5,0
ZHONGXING-26,2023-023A,2026-06-08T19:06:40.279392,1.00269750,.00040592,0.0661,71.5230,14.9674,222.4710,0,U,55686,999,1214,0,-.337E-5,0
LUCH-5X (OLYMP-K 2),2023-031A,2026-06-09T17:04:36.634368,1.00259865,.0001234,0.0260,55.6239,151.4285,9.1514,0,U,55841,999,1186,0,.53E-6,0
GAOFEN-13 02,2023-036A,2026-06-09T13:47:38.766336,1.00272582,.00041648,1.0192,0.1015,339.3002,273.7551,0,U,55912,999,1201,0,-.203E-5,0
SES-18,2023-038A,2026-06-09T08:12:42.108192,1.00269986,.00001172,0.0317,279.7091,77.1035,280.9865,0,U,55970,999,1202,0,-.84E-6,0
SES-19,2023-038B,2026-06-09T11:23:50.364672,1.00271870,.00016508,0.0186,308.7290,133.9764,211.2070,0,U,55971,999,1201,0,.105E-5,0
INTELSAT 40E (IS-40E),2023-052A,2026-06-09T09:28:58.336032,1.00268239,.00020282,0.0146,340.9112,144.9716,183.1214,0,U,56174,999,1174,0,0,0
VIASAT-3 F1,2023-060A,2026-06-09T09:29:35.775744,1.00270590,.00007997,0.0241,324.1711,98.2968,248.7155,0,U,56370,999,1135,0,0,0
ARCTURUS,2023-060B,2026-06-09T11:58:19.115040,1.00271971,.00022734,2.7566,80.0382,43.7060,26.1825,0,U,56371,999,1138,0,-.46E-6,0
GS-1,2023-060C,2026-06-08T15:31:07.690656,1.00277054,.00041256,2.7050,79.9310,279.9950,219.1575,0,U,56372,999,745,0,-.208E-5,0
